{"spkid": "20667255", "covariance": {"data": [["2.470966670704745E-14", "-3.403346045588484E-14", "6.87839448176816E-12", "-5.796732741596754E-15", "8.698446864581741E-13", "2.233924048815448E-13"], ["-3.403346045588484E-14", "4.688025785935117E-14", "-9.44709077649789E-12", "7.538470446507111E-15", "-1.185262988522876E-12", "-3.085552293890537E-13"], ["6.87839448176816E-12", "-9.44709077649789E-12", "3.961230563411593E-9", "-7.619662104293212E-12", "1.17480008332605E-9", "2.216627005141331E-11"], ["-5.796732741596754E-15", "7.538470446507111E-15", "-7.619662104293212E-12", "1.816326120270025E-10", "-1.72280718897832E-10", "5.249605399057422E-11"], ["8.698446864581741E-13", "-1.185262988522876E-12", "1.17480008332605E-9", "-1.72280718897832E-10", "6.3185906027323E-10", "-5.947968421600058E-11"], ["2.233924048815448E-13", "-3.085552293890537E-13", "2.216627005141331E-11", "5.249605399057422E-11", "-5.947968421600058E-11", "1.859028603208737E-10"]], "elements": [{"label": "e", "units": null, "value": ".4187137259605356", "title": "eccentricity", "name": "e", "sigma": 1.57193087338621e-07}, {"sigma": 2.16518493111677e-07, "name": "q", "units": "au", "title": "perihelion distance", "value": ".8021919594246972", "label": "q"}, {"units": "TDB", "value": "2457885.601453047071", "title": "time of perihelion passage", "sigma": 6.29383075988828e-05, "name": "tp", "label": "tp"}, {"label": "node", "sigma": 1.34771143805713e-05, "name": "om", "units": "deg", "title": "longitude of the ascending node", "value": "170.1575892318506"}, {"label": "peri", "sigma": 2.51368068829999e-05, "name": "w", "value": "241.5042144199412", "title": "argument of perihelion", "units": "deg"}, {"label": "i", "name": "i", "sigma": 1.36346199184603e-05, "units": "deg", "title": "inclination", "value": "20.10969471400593"}], "labels": ["e", "q", "tp", "node", "peri", "i"], "epoch": "2458130.5"}, "elements": [{"label": "e", "sigma": "1.5678E-7", "name": "e", "title": "eccentricity", "value": ".418702068556646", "units": null}, {"label": "a", "value": "1.380184525959212", "title": "semi-major axis", "units": "au", "sigma": "3.5305E-9", "name": "a"}, {"label": "q", "sigma": "2.1685E-7", "name": "q", "title": "perihelion distance", "value": ".8022984099502158", "units": "au"}, {"label": "i", "sigma": "1.3632E-5", "name": "i", "value": "20.10614677478932", "title": "inclination; angle with respect to x-y ecliptic plane", "units": "deg"}, {"name": "om", "sigma": "1.3484E-5", "units": "deg", "value": "170.0931780601557", "title": "longitude of the ascending node", "label": "node"}, {"title": "argument of perihelion", "value": "241.5623676903942", "units": "deg", "sigma": "2.5207E-5", "name": "w", "label": "peri"}, {"name": "ma", "sigma": "4.0436E-5", "title": "mean anomaly", "value": "215.2800820555269", "units": "deg", "label": "M"}, {"label": "tp", "units": "TDB", "value": "2461438.583865279230", "title": "time of perihelion passage", "sigma": "6.6613E-5", "name": "tp"}, {"title": "sidereal orbital period", "value": "592.2487568947386", "units": "d", "name": "per", "sigma": "2.2725E-6", "label": "period"}, {"name": "n", "sigma": "2.3323E-9", "units": "deg/d", "title": "mean motion", "value": ".6078526899533594", "label": "n"}, {"name": "ad", "sigma": "5.0088E-9", "title": "aphelion distance", "value": "1.958070641968208", "units": "au", "label": "Q"}], "epoch": "2461200.5"}